{"type": "FeatureCollection", "features": [ {"type": "Feature", "properties": {"norad_id": 37834, "name": "INTELSAT 18 (IS-18)", "group": "intelsat", "lat": 0.014679074097122324, "lon": -12.081117193807536, "alt_km": 35784.36011606923, "timestamp": "2025-12-13T05:42:57.165976+00:00", "meta": {"OBJECT_NAME": "INTELSAT 18 (IS-18)", "OBJECT_ID": "2011-056A", "EPOCH": "2025-12-12T05:46:32.928960", "MEAN_MOTION": 1.00271614, "ECCENTRICITY": 0.00018959, "INCLINATION": 0.0122, "RA_OF_ASC_NODE": 299.9441, "ARG_OF_PERICENTER": 330.2292, "MEAN_ANOMALY": 77.6472, "EPHEMERIS_TYPE": 0, "CLASSIFICATION_TYPE": "U", "NORAD_CAT_ID": 37834, "ELEMENT_SET_NO": 999, "REV_AT_EPOCH": 5193, "BSTAR": 0, "MEAN_MOTION_DOT": 6.3e-07, "MEAN_MOTION_DDOT": 0}, "tle": {"line1": "1 37834U 11056A   25346.24065890  .00000063  00000+0  00000+0 0  9999", "line2": "2 37834   0.0122 299.9441 0001895 330.2292  77.6472  1.00271614 51937"}}, "geometry": {"type": "Point", "coordinates": [-12.081117193807536, 0.014679074097122324]}}, {"type": "Feature", "properties": {"norad_id": 38098, "name": "INTELSAT 22 (IS-22)", "group": "intelsat", "lat": -0.018554483123504016, "lon": -119.98604213288611, "alt_km": 35779.73663746776, "timestamp": "2025-12-13T05:42:57.165989+00:00", "meta": {"OBJECT_NAME": "INTELSAT 22 (IS-22)", "OBJECT_ID": "2012-011A", "EPOCH": "2025-12-12T01:59:38.789376", "MEAN_MOTION": 1.00271162, "ECCENTRICITY": 0.00017392, "INCLINATION": 0.0016, "RA_OF_ASC_NODE": 358.3788, "ARG_OF_PERICENTER": 269.5928, "MEAN_ANOMALY": 275.096, "EPHEMERIS_TYPE": 0, "CLASSIFICATION_TYPE": "U", "NORAD_CAT_ID": 38098, "ELEMENT_SET_NO": 999, "REV_AT_EPOCH": 531, "BSTAR": 0, "MEAN_MOTION_DOT": -5e-07, "MEAN_MOTION_DDOT": 0}, "tle": {"line1": "1 38098U 12011A   25346.08308784 -.00000050  00000+0  00000+0 0  9995", "line2": "2 38098   0.0016 358.3788 0001739 269.5928 275.0960  1.00271162  5318"}}, "geometry": {"type": "Point", "coordinates": [-119.98604213288611, -0.018554483123504016]}}, {"type": "Feature", "properties": {"norad_id": 38356, "name": "INTELSAT 19 (IS-19)", "group": "intelsat", "lat": -0.005267535312900373, "lon": -26.048373089825446, "alt_km": 35779.63204964077, "timestamp": "2025-12-13T05:42:57.166002+00:00", "meta": {"OBJECT_NAME": "INTELSAT 19 (IS-19)", "OBJECT_ID": "2012-030A", "EPOCH": "2025-12-12T05:01:38.705664", "MEAN_MOTION": 1.00272347, "ECCENTRICITY": 0.00034292, "INCLINATION": 0.009, "RA_OF_ASC_NODE": 353.6966, "ARG_OF_PERICENTER": 275.9513, "MEAN_ANOMALY": 52.9321, "EPHEMERIS_TYPE": 0, "CLASSIFICATION_TYPE": "U", "NORAD_CAT_ID": 38356, "ELEMENT_SET_NO": 999, "REV_AT_EPOCH": 4857, "BSTAR": 0, "MEAN_MOTION_DOT": -4.6e-07, "MEAN_MOTION_DDOT": 0}, "tle": {"line1": "1 38356U 12030A   25346.20947576 -.00000046  00000+0  00000+0 0  9990", "line2": "2 38356   0.0090 353.6966 0003429 275.9513  52.9321  1.00272347 48576"}}, "geometry": {"type": "Point", "coordinates": [-26.048373089825446, -0.005267535312900373]}}, {"type": "Feature", "properties": {"norad_id": 38740, "name": "INTELSAT 20 (IS-20)", "group": "intelsat", "lat": -0.0019869263920213563, "lon": -123.56932164374449, "alt_km": 35779.40565041611, "timestamp": "2025-12-13T05:42:57.166014+00:00", "meta": {"OBJECT_NAME": "INTELSAT 20 (IS-20)", "OBJECT_ID": "2012-043A", "EPOCH": "2025-12-11T19:58:55.649856", "MEAN_MOTION": 1.00270334, "ECCENTRICITY": 0.00027081, "INCLINATION": 0.0053, "RA_OF_ASC_NODE": 83.8279, "ARG_OF_PERICENTER": 100.6018, "MEAN_ANOMALY": 264.5986, "EPHEMERIS_TYPE": 0, "CLASSIFICATION_TYPE": "U", "NORAD_CAT_ID": 38740, "ELEMENT_SET_NO": 999, "REV_AT_EPOCH": 4887, "BSTAR": 0, "MEAN_MOTION_DOT": -1.6e-07, "MEAN_MOTION_DDOT": 0}, "tle": {"line1": "1 38740U 12043A   25345.83258854 -.00000016  00000+0  00000+0 0  9990", "line2": "2 38740   0.0053  83.8279 0002708 100.6018 264.5986  1.00270334 48879"}}, "geometry": {"type": "Point", "coordinates": [-123.56932164374449, -0.0019869263920213563]}}, {"type": "Feature", "properties": {"norad_id": 38749, "name": "INTELSAT 21 (IS-21)", "group": "intelsat", "lat": 0.02556853249545795, "lon": 109.89730394787934, "alt_km": 35792.541505161375, "timestamp": "2025-12-13T05:42:57.166026+00:00", "meta": {"OBJECT_NAME": "INTELSAT 21 (IS-21)", "OBJECT_ID": "2012-045A", "EPOCH": "2025-12-12T06:21:22.093920", "MEAN_MOTION": 1.0027254, "ECCENTRICITY": 0.00018332, "INCLINATION": 0.0247, "RA_OF_ASC_NODE": 66.7287, "ARG_OF_PERICENTER": 190.9328, "MEAN_ANOMALY": 220.8965, "EPHEMERIS_TYPE": 0, "CLASSIFICATION_TYPE": "U", "NORAD_CAT_ID": 38749, "ELEMENT_SET_NO": 999, "REV_AT_EPOCH": 4865, "BSTAR": 0, "MEAN_MOTION_DOT": -2.75e-06, "MEAN_MOTION_DDOT": 0}, "tle": {"line1": "1 38749U 12045A   25346.26483905 -.00000275  00000+0  00000+0 0  9993", "line2": "2 38749   0.0247  66.7287 0001833 190.9328 220.8965  1.00272540 48655"}}, "geometry": {"type": "Point", "coordinates": [109.89730394787934, 0.02556853249545795]}}, {"type": "Feature", "properties": {"norad_id": 38867, "name": "INTELSAT 23 (IS-23)", "group": "intelsat", "lat": 0.027700144565395574, "lon": 114.90064144758152, "alt_km": 35787.38050118999, "timestamp": "2025-12-13T05:42:57.166039+00:00", "meta": {"OBJECT_NAME": "INTELSAT 23 (IS-23)", "OBJECT_ID": "2012-057A", "EPOCH": "2025-12-12T06:22:44.463360", "MEAN_MOTION": 1.0027282, "ECCENTRICITY": 0.00010507, "INCLINATION": 0.0436, "RA_OF_ASC_NODE": 96.7603, "ARG_OF_PERICENTER": 127.4406, "MEAN_ANOMALY": 259.7037, "EPHEMERIS_TYPE": 0, "CLASSIFICATION_TYPE": "U", "NORAD_CAT_ID": 38867, "ELEMENT_SET_NO": 999, "REV_AT_EPOCH": 4808, "BSTAR": 0, "MEAN_MOTION_DOT": -2.75e-06, "MEAN_MOTION_DDOT": 0}, "tle": {"line1": "1 38867U 12057A   25346.26579240 -.00000275  00000+0  00000+0 0  9995", "line2": "2 38867   0.0436  96.7603 0001050 127.4406 259.7037  1.00272820 48083"}}, "geometry": {"type": "Point", "coordinates": [114.90064144758152, 0.027700144565395574]}}, {"type": "Feature", "properties": {"norad_id": 39360, "name": "FM-6", "group": "intelsat", "lat": 0.007690019830631981, "lon": 51.73687083434426, "alt_km": 35792.73066664423, "timestamp": "2025-12-13T05:42:57.166051+00:00", "meta": {"OBJECT_NAME": "FM-6", "OBJECT_ID": "2013-058A", "EPOCH": "2025-12-12T03:46:38.737056", "MEAN_MOTION": 1.002731, "ECCENTRICITY": 0.00028952, "INCLINATION": 0.0112, "RA_OF_ASC_NODE": 74.0155, "ARG_OF_PERICENTER": 103.1102, "MEAN_ANOMALY": 204.4975, "EPHEMERIS_TYPE": 0, "CLASSIFICATION_TYPE": "U", "NORAD_CAT_ID": 39360, "ELEMENT_SET_NO": 999, "REV_AT_EPOCH": 4419, "BSTAR": 0, "MEAN_MOTION_DOT": -8e-08, "MEAN_MOTION_DDOT": 0}, "tle": {"line1": "1 39360U 13058A   25346.15739279 -.00000008  00000+0  00000+0 0  9998", "line2": "2 39360   0.0112  74.0155 0002895 103.1102 204.4975  1.00273100 44194"}}, "geometry": {"type": "Point", "coordinates": [51.73687083434426, 0.007690019830631981]}}, {"type": "Feature", "properties": {"norad_id": 40271, "name": "INTELSAT 30 (IS-30)", "group": "intelsat", "lat": 0.026746176426532955, "lon": 72.83501590022675, "alt_km": 35779.97694850848, "timestamp": "2025-12-13T05:42:57.166063+00:00", "meta": {"OBJECT_NAME": "INTELSAT 30 (IS-30)", "OBJECT_ID": "2014-062A", "EPOCH": "2025-12-11T08:43:38.851968", "MEAN_MOTION": 1.00271845, "ECCENTRICITY": 0.00015432, "INCLINATION": 0.0188, "RA_OF_ASC_NODE": 35.8315, "ARG_OF_PERICENTER": 56.6474, "MEAN_ANOMALY": 23.6951, "EPHEMERIS_TYPE": 0, "CLASSIFICATION_TYPE": "U", "NORAD_CAT_ID": 40271, "ELEMENT_SET_NO": 999, "REV_AT_EPOCH": 490, "BSTAR": 0, "MEAN_MOTION_DOT": -1.44e-06, "MEAN_MOTION_DDOT": 0}, "tle": {"line1": "1 40271U 14062A   25345.36364412 -.00000144  00000+0  00000+0 0  9993", "line2": "2 40271   0.0188  35.8315 0001543  56.6474  23.6951  1.00271845  4900"}}, "geometry": {"type": "Point", "coordinates": [72.83501590022675, 0.026746176426532955]}}, {"type": "Feature", "properties": {"norad_id": 40333, "name": "DIRECTV 14", "group": "intelsat", "lat": 0.030518847386678972, "lon": 68.70087770486556, "alt_km": 35786.54818940595, "timestamp": "2025-12-13T05:42:57.166075+00:00", "meta": {"OBJECT_NAME": "DIRECTV 14", "OBJECT_ID": "2014-078B", "EPOCH": "2025-12-11T14:45:07.933824", "MEAN_MOTION": 1.00273916, "ECCENTRICITY": 4.131e-05, "INCLINATION": 0.0158, "RA_OF_ASC_NODE": 316.5152, "ARG_OF_PERICENTER": 238.3752, "MEAN_ANOMALY": 7.7536, "EPHEMERIS_TYPE": 0, "CLASSIFICATION_TYPE": "U", "NORAD_CAT_ID": 40333, "ELEMENT_SET_NO": 999, "REV_AT_EPOCH": 4016, "BSTAR": 0, "MEAN_MOTION_DOT": -1.18e-06, "MEAN_MOTION_DDOT": 0}, "tle": {"line1": "1 40333U 14078B   25345.61467516 -.00000118  00000+0  00000+0 0  9997", "line2": "2 40333   0.0158 316.5152 0000413 238.3752   7.7536  1.00273916 40168"}}, "geometry": {"type": "Point", "coordinates": [68.70087770486556, 0.030518847386678972]}}, {"type": "Feature", "properties": {"norad_id": 40663, "name": "DIRECTV 15", "group": "intelsat", "lat": 0.007321443827151751, "lon": 65.03920793498631, "alt_km": 35787.063309110184, "timestamp": "2025-12-13T05:42:57.166087+00:00", "meta": {"OBJECT_NAME": "DIRECTV 15", "OBJECT_ID": "2015-026A", "EPOCH": "2025-12-11T21:34:58.682784", "MEAN_MOTION": 1.00271604, "ECCENTRICITY": 2.2e-05, "INCLINATION": 0.0402, "RA_OF_ASC_NODE": 85.3093, "ARG_OF_PERICENTER": 150.3651, "MEAN_ANOMALY": 66.0596, "EPHEMERIS_TYPE": 0, "CLASSIFICATION_TYPE": "U", "NORAD_CAT_ID": 40663, "ELEMENT_SET_NO": 999, "REV_AT_EPOCH": 3858, "BSTAR": 0, "MEAN_MOTION_DOT": -9.4e-07, "MEAN_MOTION_DDOT": 0}, "tle": {"line1": "1 40663U 15026A   25345.89929031 -.00000094  00000+0  00000+0 0  9995", "line2": "2 40663   0.0402  85.3093 0000220 150.3651  66.0596  1.00271604 38587"}}, "geometry": {"type": "Point", "coordinates": [65.03920793498631, 0.007321443827151751]}}]}